[{"OBJECT_NAME":"STARLINK-31680","OBJECT_ID":"2024-062G","EPOCH":"2026-03-09T20:01:08.200416","MEAN_MOTION":15.30176429,"ECCENTRICITY":0.00012522,"INCLINATION":53.1599,"RA_OF_ASC_NODE":257.8269,"ARG_OF_PERICENTER":93.0039,"MEAN_ANOMALY":267.1105,"EPHEMERIS_TYPE":0,"CLASSIFICATION_TYPE":"U","NORAD_CAT_ID":59380,"ELEMENT_SET_NO":999,"REV_AT_EPOCH":10961,"BSTAR":-3.1453464e-5,"MEAN_MOTION_DOT":-1.29e-5,"MEAN_MOTION_DDOT":0},{"OBJECT_NAME":"CERISE","OBJECT_ID":"1995-033B","EPOCH":"2026-03-09T23:11:27.589056","MEAN_MOTION":15.32047731,"ECCENTRICITY":0.00057118,"INCLINATION":98.325,"RA_OF_ASC_NODE":273.5192,"ARG_OF_PERICENTER":211.8754,"MEAN_ANOMALY":148.214,"EPHEMERIS_TYPE":0,"CLASSIFICATION_TYPE":"U","NORAD_CAT_ID":23606,"ELEMENT_SET_NO":999,"REV_AT_EPOCH":66468,"BSTAR":0.00062940675,"MEAN_MOTION_DOT":0.00019422,"MEAN_MOTION_DDOT":0}]
